{"type": "FeatureCollection", "features": [ {"type": "Feature", "properties": {"norad_id": 66819, "name": "STARLINK-35989", "group": "last-30-days", "lat": 7.6514312757227225, "lon": -153.4440360773829, "alt_km": 393.56583775747094, "timestamp": "2025-12-21T14:40:46.634578+00:00", "meta": {"OBJECT_NAME": "STARLINK-35989", "OBJECT_ID": "2025-278AE", "EPOCH": "2025-12-21T06:00:00.999648", "MEAN_MOTION": 15.59216736, "ECCENTRICITY": 0.00013894, "INCLINATION": 42.9991, "RA_OF_ASC_NODE": 200.4074, "ARG_OF_PERICENTER": 271.7913, "MEAN_ANOMALY": 228.1931, "EPHEMERIS_TYPE": 0, "CLASSIFICATION_TYPE": "U", "NORAD_CAT_ID": 66819, "ELEMENT_SET_NO": 999, "REV_AT_EPOCH": 432, "BSTAR": -0.028398076, "MEAN_MOTION_DOT": -0.02007883, "MEAN_MOTION_DDOT": 0}, "tle": {"line1": "1 66819U 25278AE  25355.25001157 -.02007883  00000+0 -28398-1 0  9995", "line2": "2 66819  42.9991 200.4074 0001389 271.7913 228.1931 15.59216736  4324"}}, "geometry": {"type": "Point", "coordinates": [-153.4440360773829, 7.6514312757227225]}}, {"type": "Feature", "properties": {"norad_id": 66820, "name": "KOMPSAT-7", "group": "last-30-days", "lat": -9.202381234313409, "lon": -57.43080728947354, "alt_km": 572.4480029650967, "timestamp": "2025-12-21T14:40:46.634605+00:00", "meta": {"OBJECT_NAME": "KOMPSAT-7", "OBJECT_ID": "2025-279A", "EPOCH": "2025-12-21T06:43:09.840864", "MEAN_MOTION": 15.00648086, "ECCENTRICITY": 0.00110114, "INCLINATION": 97.6443, "RA_OF_ASC_NODE": 300.9963, "ARG_OF_PERICENTER": 235.6327, "MEAN_ANOMALY": 124.3856, "EPHEMERIS_TYPE": 0, "CLASSIFICATION_TYPE": "U", "NORAD_CAT_ID": 66820, "ELEMENT_SET_NO": 999, "REV_AT_EPOCH": 293, "BSTAR": 0.00020176605, "MEAN_MOTION_DOT": 2.495e-05, "MEAN_MOTION_DDOT": 0}, "tle": {"line1": "1 66820U 25279A   25355.27997501  .00002495  00000+0  20177-3 0  9996", "line2": "2 66820  97.6443 300.9963 0011011 235.6327 124.3856 15.00648086  2930"}}, "geometry": {"type": "Point", "coordinates": [-57.43080728947354, -9.202381234313409]}}, {"type": "Feature", "properties": {"norad_id": 66821, "name": "STARLINK-35966", "group": "last-30-days", "lat": -67.01252393873163, "lon": 53.27884461542564, "alt_km": 413.8724967122098, "timestamp": "2025-12-21T14:40:46.634619+00:00", "meta": {"OBJECT_NAME": "STARLINK-35966", "OBJECT_ID": "2025-280A", "EPOCH": "2025-12-21T06:00:00.999648", "MEAN_MOTION": 15.52460868, "ECCENTRICITY": 0.00032122, "INCLINATION": 69.9995, "RA_OF_ASC_NODE": 175.1069, "ARG_OF_PERICENTER": 269.9957, "MEAN_ANOMALY": 127.8558, "EPHEMERIS_TYPE": 0, "CLASSIFICATION_TYPE": "U", "NORAD_CAT_ID": 66821, "ELEMENT_SET_NO": 999, "REV_AT_EPOCH": 426, "BSTAR": 0.0011592707, "MEAN_MOTION_DOT": 0.00071647, "MEAN_MOTION_DDOT": 0}, "tle": {"line1": "1 66821U 25280A   25355.25001157  .00071647  00000+0  11593-2 0  9996", "line2": "2 66821  69.9995 175.1069 0003212 269.9957 127.8558 15.52460868  4269"}}, "geometry": {"type": "Point", "coordinates": [53.27884461542564, -67.01252393873163]}}, {"type": "Feature", "properties": {"norad_id": 66822, "name": "STARLINK-35958", "group": "last-30-days", "lat": -67.87502961692863, "lon": 57.74040792329893, "alt_km": 413.8223384127141, "timestamp": "2025-12-21T14:40:46.634633+00:00", "meta": {"OBJECT_NAME": "STARLINK-35958", "OBJECT_ID": "2025-280B", "EPOCH": "2025-12-21T06:00:00.999648", "MEAN_MOTION": 15.52467831, "ECCENTRICITY": 0.0003273, "INCLINATION": 69.9994, "RA_OF_ASC_NODE": 175.1059, "ARG_OF_PERICENTER": 268.7939, "MEAN_ANOMALY": 130.9718, "EPHEMERIS_TYPE": 0, "CLASSIFICATION_TYPE": "U", "NORAD_CAT_ID": 66822, "ELEMENT_SET_NO": 999, "REV_AT_EPOCH": 426, "BSTAR": 0.00099779791, "MEAN_MOTION_DOT": 0.00061581, "MEAN_MOTION_DDOT": 0}, "tle": {"line1": "1 66822U 25280B   25355.25001157  .00061581  00000+0  99780-3 0  9998", "line2": "2 66822  69.9994 175.1059 0003273 268.7939 130.9718 15.52467831  4262"}}, "geometry": {"type": "Point", "coordinates": [57.74040792329893, -67.87502961692863]}}, {"type": "Feature", "properties": {"norad_id": 66823, "name": "STARLINK-35957", "group": "last-30-days", "lat": -68.60583321519448, "lon": 62.50319197169188, "alt_km": 413.8853918654322, "timestamp": "2025-12-21T14:40:46.634643+00:00", "meta": {"OBJECT_NAME": "STARLINK-35957", "OBJECT_ID": "2025-280C", "EPOCH": "2025-12-21T06:00:00.999648", "MEAN_MOTION": 15.52466751, "ECCENTRICITY": 0.00031779, "INCLINATION": 69.9995, "RA_OF_ASC_NODE": 175.1032, "ARG_OF_PERICENTER": 268.9105, "MEAN_ANOMALY": 132.7701, "EPHEMERIS_TYPE": 0, "CLASSIFICATION_TYPE": "U", "NORAD_CAT_ID": 66823, "ELEMENT_SET_NO": 999, "REV_AT_EPOCH": 426, "BSTAR": 0.0010226892, "MEAN_MOTION_DOT": 0.00063131, "MEAN_MOTION_DDOT": 0}, "tle": {"line1": "1 66823U 25280C   25355.25001157  .00063131  00000+0  10227-2 0  9990", "line2": "2 66823  69.9995 175.1032 0003177 268.9105 132.7701 15.52466751  4267"}}, "geometry": {"type": "Point", "coordinates": [62.50319197169188, -68.60583321519448]}}, {"type": "Feature", "properties": {"norad_id": 66824, "name": "STARLINK-35896", "group": "last-30-days", "lat": -69.19429880858755, "lon": 67.5645713424344, "alt_km": 413.8757204437152, "timestamp": "2025-12-21T14:40:46.634653+00:00", "meta": {"OBJECT_NAME": "STARLINK-35896", "OBJECT_ID": "2025-280D", "EPOCH": "2025-12-21T06:00:00.999648", "MEAN_MOTION": 15.52466684, "ECCENTRICITY": 0.00031888, "INCLINATION": 69.9994, "RA_OF_ASC_NODE": 175.101, "ARG_OF_PERICENTER": 268.2561, "MEAN_ANOMALY": 135.3422, "EPHEMERIS_TYPE": 0, "CLASSIFICATION_TYPE": "U", "NORAD_CAT_ID": 66824, "ELEMENT_SET_NO": 999, "REV_AT_EPOCH": 426, "BSTAR": 0.0010206241, "MEAN_MOTION_DOT": 0.00063002, "MEAN_MOTION_DDOT": 0}, "tle": {"line1": "1 66824U 25280D   25355.25001157  .00063002  00000+0  10206-2 0  9995", "line2": "2 66824  69.9994 175.1010 0003188 268.2561 135.3422 15.52466684  4268"}}, "geometry": {"type": "Point", "coordinates": [67.5645713424344, -69.19429880858755]}}, {"type": "Feature", "properties": {"norad_id": 66825, "name": "STARLINK-35476", "group": "last-30-days", "lat": -69.62612460613906, "lon": 72.85817015224758, "alt_km": 413.8725199000637, "timestamp": "2025-12-21T14:40:46.634663+00:00", "meta": {"OBJECT_NAME": "STARLINK-35476", "OBJECT_ID": "2025-280E", "EPOCH": "2025-12-21T06:00:00.999648", "MEAN_MOTION": 15.52470473, "ECCENTRICITY": 0.00031922, "INCLINATION": 69.9995, "RA_OF_ASC_NODE": 175.0987, "ARG_OF_PERICENTER": 269.0816, "MEAN_ANOMALY": 136.4285, "EPHEMERIS_TYPE": 0, "CLASSIFICATION_TYPE": "U", "NORAD_CAT_ID": 66825, "ELEMENT_SET_NO": 999, "REV_AT_EPOCH": 411, "BSTAR": 0.00095495374, "MEAN_MOTION_DOT": 0.00058915, "MEAN_MOTION_DDOT": 0}, "tle": {"line1": "1 66825U 25280E   25355.25001157  .00058915  00000+0  95495-3 0  9997", "line2": "2 66825  69.9995 175.0987 0003192 269.0816 136.4285 15.52470473  4113"}}, "geometry": {"type": "Point", "coordinates": [72.85817015224758, -69.62612460613906]}}, {"type": "Feature", "properties": {"norad_id": 66826, "name": "STARLINK-35898", "group": "last-30-days", "lat": -69.89301470805266, "lon": 78.3480441852196, "alt_km": 413.8468485846506, "timestamp": "2025-12-21T14:40:46.634673+00:00", "meta": {"OBJECT_NAME": "STARLINK-35898", "OBJECT_ID": "2025-280F", "EPOCH": "2025-12-21T06:00:00.999648", "MEAN_MOTION": 15.52466344, "ECCENTRICITY": 0.00032423, "INCLINATION": 69.9996, "RA_OF_ASC_NODE": 175.096, "ARG_OF_PERICENTER": 268.5828, "MEAN_ANOMALY": 138.8528, "EPHEMERIS_TYPE": 0, "CLASSIFICATION_TYPE": "U", "NORAD_CAT_ID": 66826, "ELEMENT_SET_NO": 999, "REV_AT_EPOCH": 426, "BSTAR": 0.00098608884, "MEAN_MOTION_DOT": 0.00060848, "MEAN_MOTION_DDOT": 0}, "tle": {"line1": "1 66826U 25280F   25355.25001157  .00060848  00000+0  98609-3 0  9996", "line2": "2 66826  69.9996 175.0960 0003242 268.5828 138.8528 15.52466344  4263"}}, "geometry": {"type": "Point", "coordinates": [78.3480441852196, -69.89301470805266]}}, {"type": "Feature", "properties": {"norad_id": 66827, "name": "STARLINK-35959", "group": "last-30-days", "lat": -69.98629136277695, "lon": 83.91700495390735, "alt_km": 413.9310805295081, "timestamp": "2025-12-21T14:40:46.634683+00:00", "meta": {"OBJECT_NAME": "STARLINK-35959", "OBJECT_ID": "2025-280G", "EPOCH": "2025-12-21T06:00:00.999648", "MEAN_MOTION": 15.5246616, "ECCENTRICITY": 0.00031141, "INCLINATION": 69.9996, "RA_OF_ASC_NODE": 175.0936, "ARG_OF_PERICENTER": 268.3029, "MEAN_ANOMALY": 141.0474, "EPHEMERIS_TYPE": 0, "CLASSIFICATION_TYPE": "U", "NORAD_CAT_ID": 66827, "ELEMENT_SET_NO": 999, "REV_AT_EPOCH": 426, "BSTAR": 0.0010268762, "MEAN_MOTION_DOT": 0.00063391, "MEAN_MOTION_DDOT": 0}, "tle": {"line1": "1 66827U 25280G   25355.25001157  .00063391  00000+0  10269-2 0  9998", "line2": "2 66827  69.9996 175.0936 0003114 268.3029 141.0474 15.52466160  4268"}}, "geometry": {"type": "Point", "coordinates": [83.91700495390735, -69.98629136277695]}}, {"type": "Feature", "properties": {"norad_id": 66828, "name": "STARLINK-35982", "group": "last-30-days", "lat": -69.65012777253426, "lon": 94.97337561222504, "alt_km": 413.85044143016876, "timestamp": "2025-12-21T14:40:46.634693+00:00", "meta": {"OBJECT_NAME": "STARLINK-35982", "OBJECT_ID": "2025-280H", "EPOCH": "2025-12-21T06:00:00.999648", "MEAN_MOTION": 15.52468869, "ECCENTRICITY": 0.00032352, "INCLINATION": 69.9995, "RA_OF_ASC_NODE": 175.0894, "ARG_OF_PERICENTER": 269.4767, "MEAN_ANOMALY": 143.7036, "EPHEMERIS_TYPE": 0, "CLASSIFICATION_TYPE": "U", "NORAD_CAT_ID": 66828, "ELEMENT_SET_NO": 999, "REV_AT_EPOCH": 426, "BSTAR": 0.00098434946, "MEAN_MOTION_DOT": 0.00060745, "MEAN_MOTION_DDOT": 0}, "tle": {"line1": "1 66828U 25280H   25355.25001157  .00060745  00000+0  98435-3 0  9991", "line2": "2 66828  69.9995 175.0894 0003235 269.4767 143.7036 15.52468869  4267"}}, "geometry": {"type": "Point", "coordinates": [94.97337561222504, -69.65012777253426]}}]}